IRIDIUM 57 [-]          
1 25273U 98019B   24031.44320793  .00000513  00000+0  17303-3 0  9993
2 25273  86.3992 355.7976 0002177  87.3437 272.8008 14.35064204352667
IRIDIUM 63 [-]          
1 25286U 98021B   24031.23914303  .00000537  00000+0  17978-3 0  9997
2 25286  86.3984 292.8177 0002277  88.6358 271.5100 14.35588533351667
IRIDIUM 69 [-]          
1 25319U 98026A   24031.71058010  .00000724  00000+0  22469-3 0  9995
2 25319  86.4001 307.4167 0001037 169.2255 190.8966 14.39781335350977
IRIDIUM 71 [-]          
1 25320U 98026B   24031.74122286  .00000586  00000+0  17941-3 0  9992
2 25320  86.3988 302.1981 0001341  17.5738 342.5507 14.40101846351509
IRIDIUM 73 [-]          
1 25344U 98032C   24031.59727455  .00000641  00000+0  15948-3 0  9994
2 25344  86.4390 259.8800 0001544  99.0380 261.0999 14.50269581357681
IRIDIUM 82 [-]          
1 25467U 98051A   24031.39682623  .00019711  00000+0  10858-2 0  9998
2 25467  86.3957 350.8366 0139003   6.5636 353.7375 15.05897059347722
IRIDIUM 2 [-]           
1 25527U 98066A   24031.45700296  .00053256  00000+0  85497-3 0  9999
2 25527  85.5141  31.2807 0007565 112.7159 247.4901 15.52805875386355
